{
    "links": {
        "self": "http://www.neowsapp.com/rest/v1/neo/3780789?api_key=iIulBulltgU6a56xZRHN4H3l9WmuAYTsLGpBGhQ2"
    },
    "id": "3780789",
    "neo_reference_id": "3780789",
    "name": "(2017 QG3)",
    "designation": "2017 QG3",
    "nasa_jpl_url": "http://ssd.jpl.nasa.gov/sbdb.cgi?sstr=3780789",
    "absolute_magnitude_h": 22.6,
    "estimated_diameter": {
        "kilometers": {
            "estimated_diameter_min": 0.0802703167,
            "estimated_diameter_max": 0.1794898848
        },
        "meters": {
            "estimated_diameter_min": 80.2703167283,
            "estimated_diameter_max": 179.4898847799
        },
        "miles": {
            "estimated_diameter_min": 0.049877647,
            "estimated_diameter_max": 0.1115298092
        },
        "feet": {
            "estimated_diameter_min": 263.3540659348,
            "estimated_diameter_max": 588.8775935812
        }
    },
    "is_potentially_hazardous_asteroid": false,
    "close_approach_data": [
        {
            "close_approach_date": "1986-08-08",
            "close_approach_date_full": "1986-Aug-08 09:22",
            "epoch_date_close_approach": 523876920000,
            "relative_velocity": {
                "kilometers_per_second": "6.8592486951",
                "kilometers_per_hour": "24693.2953023131",
                "miles_per_hour": "15343.45340604"
            },
            "miss_distance": {
                "astronomical": "0.2506808176",
                "lunar": "97.5148380464",
                "kilometers": "37501316.362818512",
                "miles": "23302237.4487469856"
            },
            "orbiting_body": "Earth"
        },
        {
            "close_approach_date": "2017-08-16",
            "close_approach_date_full": "2017-Aug-16 00:49",
            "epoch_date_close_approach": 1502844540000,
            "relative_velocity": {
                "kilometers_per_second": "4.4075284824",
                "kilometers_per_hour": "15867.1025367156",
                "miles_per_hour": "9859.2004623275"
            },
            "miss_distance": {
                "astronomical": "0.2072260446",
                "lunar": "80.6109313494",
                "kilometers": "31000574.880685002",
                "miles": "19262863.9999849476"
            },
            "orbiting_body": "Earth"
        },
        {
            "close_approach_date": "2060-08-18",
            "close_approach_date_full": "2060-Aug-18 02:42",
            "epoch_date_close_approach": 2860022520000,
            "relative_velocity": {
                "kilometers_per_second": "5.306920596",
                "kilometers_per_hour": "19104.9141456277",
                "miles_per_hour": "11871.0506812096"
            },
            "miss_distance": {
                "astronomical": "0.2734283758",
                "lunar": "106.3636381862",
                "kilometers": "40904302.617239546",
                "miles": "25416755.0557598948"
            },
            "orbiting_body": "Earth"
        }
    ],
    "orbital_data": {
        "orbit_id": "12",
        "orbit_determination_date": "2017-10-16 06:21:48",
        "first_observation_date": "2017-08-17",
        "last_observation_date": "2017-09-27",
        "data_arc_in_days": 41,
        "observations_used": 61,
        "orbit_uncertainty": "6",
        "minimum_orbit_intersection": ".207244",
        "jupiter_tisserand_invariant": "3.287",
        "epoch_osculation": "2458000.5",
        "eccentricity": ".5073609117721302",
        "semi_major_axis": "2.47588376392033",
        "inclination": "4.410522634060284",
        "ascending_node_longitude": "325.5129197072218",
        "orbital_period": "1422.963645481174",
        "perihelion_distance": "1.219717120015898",
        "perihelion_argument": "358.9953866404047",
        "aphelion_distance": "3.732050407824762",
        "perihelion_time": "2457982.870794397238",
        "mean_anomaly": "4.460067575969764",
        "mean_motion": ".2529931113442229",
        "equinox": "J2000",
        "orbit_class": {
            "orbit_class_type": "AMO",
            "orbit_class_description": "Near-Earth asteroid orbits similar to that of 1221 Amor",
            "orbit_class_range": "1.017 AU < q (perihelion) < 1.3 AU"
        }
    },
    "is_sentry_object": false
}